STARLINK-31295          
1 59095U 24041X   26028.75050851 -.00000535  00000+0 -99115-5 0  9992
2 59095  42.9997 176.2267 0001355 278.7439  81.3259 15.27579547108161
STARLINK-31291          
1 59096U 24041Y   26028.74794420  .00000102  00000+0  13231-4 0  9991
2 59096  42.9992 176.2039 0001193 277.5032  82.5684 15.27573816108168
STARLINK-31312          
1 59152U 24044A   26028.75791398  .00003013  00000+0  11896-3 0  9997
2 59152  43.0008 281.8405 0002322 296.3786  63.6827 15.27584746108074
STARLINK-31308          
1 59153U 24044B   26028.71646983  .00001294  00000+0  56545-4 0  9993
2 59153  43.0012 285.9487 0001440 315.4274  44.6461 15.27584445108035
STARLINK-31270          
1 59154U 24044C   26028.86309370 -.00001112  00000+0 -30935-4 0  9992
2 59154  43.0007 332.0321 0000225 291.4755  68.6072 15.27571838107505
STARLINK-31341          
1 59155U 24044D   26028.87673314  .00001104  00000+0  49638-4 0  9995
2 59155  43.0047 335.5787 0000722 249.6575 110.4199 15.27580427107433
STARLINK-31338          
1 59156U 24044E   26026.91129431  .00001181  00000+0  52458-4 0  9994
2 59156  42.9996 346.6264 0001033 284.9426  75.1311 15.27563694107138
STARLINK-31334          
1 59157U 24044F   26027.55743110 -.00006556  00000+0 -22890-3 0  9991
2 59157  43.0025 342.8716 0001444 266.1568  93.9118 15.27584508107230
STARLINK-31297          
1 59158U 24044G   26028.86696273 -.00000564  00000+0 -10957-4 0  9999
2 59158  43.0027 332.0588 0001735 272.6851  87.3802 15.27569400107502
STARLINK-31182          
1 59159U 24044H   26028.56812836  .00003076  00000+0  12123-3 0  9997
2 59159  43.0037 333.2602 0000870 257.2122 102.8633 15.27581604107463
STARLINK-31327          
1 59160U 24044J   26027.88871940 -.00000239  00000+0  84400-6 0  9993
2 59160  43.0044 337.6175 0000626 219.9362 140.1444 15.27573694107359
STARLINK-31256          
1 59161U 24044K   26028.83354526 -.00002855  00000+0 -94287-4 0  9995
2 59161  42.9993 331.8074 0003280 288.9722  71.0774 15.27560801107501
STARLINK-31272          
1 59162U 24044L   26026.94117828 -.00000480  00000+0 -78955-5 0  9995
2 59162  43.0047 342.5496 0002319 271.9625  88.0962 15.27570345107182
STARLINK-31278          
1 59163U 24044M   26028.84124525  .00000803  00000+0  38709-4 0  9998
2 59163  43.0027 331.8668 0000977 255.5918 104.4826 15.27580499107479
STARLINK-31309          
1 59164U 24044N   26028.12585047  .00013475  00000+0  49805-3 0  9997
2 59164  42.9993 335.9619 0000941 253.2231 106.8517 15.27594911107393
STARLINK-31325          
1 59165U 24044P   26027.86686604 -.00000895  00000+0 -23006-4 0  9999
2 59165  43.0031 337.4592 0001012 243.8980 116.1767 15.27575625107327
