[{"OBJECT_NAME":"STARLINK-31295","OBJECT_ID":"2024-041X","EPOCH":"2026-01-28T18:00:43.935264","MEAN_MOTION":15.27579547,"ECCENTRICITY":0.00013559,"INCLINATION":42.9997,"RA_OF_ASC_NODE":176.2267,"ARG_OF_PERICENTER":278.7439,"MEAN_ANOMALY":81.3259,"EPHEMERIS_TYPE":0,"CLASSIFICATION_TYPE":"U","NORAD_CAT_ID":59095,"ELEMENT_SET_NO":999,"REV_AT_EPOCH":10816,"BSTAR":-9.911501e-6,"MEAN_MOTION_DOT":-5.35e-6,"MEAN_MOTION_DDOT":0},{"OBJECT_NAME":"STARLINK-31291","OBJECT_ID":"2024-041Y","EPOCH":"2026-01-28T17:57:02.378880","MEAN_MOTION":15.27573816,"ECCENTRICITY":0.00011939,"INCLINATION":42.9992,"RA_OF_ASC_NODE":176.2039,"ARG_OF_PERICENTER":277.5032,"MEAN_ANOMALY":82.5684,"EPHEMERIS_TYPE":0,"CLASSIFICATION_TYPE":"U","NORAD_CAT_ID":59096,"ELEMENT_SET_NO":999,"REV_AT_EPOCH":10816,"BSTAR":1.3230979e-5,"MEAN_MOTION_DOT":1.02e-6,"MEAN_MOTION_DDOT":0},{"OBJECT_NAME":"STARLINK-31312","OBJECT_ID":"2024-044A","EPOCH":"2026-01-28T18:11:23.767872","MEAN_MOTION":15.27584746,"ECCENTRICITY":0.0002322,"INCLINATION":43.0008,"RA_OF_ASC_NODE":281.8405,"ARG_OF_PERICENTER":296.3786,"MEAN_ANOMALY":63.6827,"EPHEMERIS_TYPE":0,"CLASSIFICATION_TYPE":"U","NORAD_CAT_ID":59152,"ELEMENT_SET_NO":999,"REV_AT_EPOCH":10807,"BSTAR":0.00011896293,"MEAN_MOTION_DOT":3.013e-5,"MEAN_MOTION_DDOT":0},{"OBJECT_NAME":"STARLINK-31308","OBJECT_ID":"2024-044B","EPOCH":"2026-01-28T17:11:42.993312","MEAN_MOTION":15.27584445,"ECCENTRICITY":0.00014407,"INCLINATION":43.0012,"RA_OF_ASC_NODE":285.9487,"ARG_OF_PERICENTER":315.4274,"MEAN_ANOMALY":44.6461,"EPHEMERIS_TYPE":0,"CLASSIFICATION_TYPE":"U","NORAD_CAT_ID":59153,"ELEMENT_SET_NO":999,"REV_AT_EPOCH":10803,"BSTAR":5.6544632e-5,"MEAN_MOTION_DOT":1.294e-5,"MEAN_MOTION_DDOT":0},{"OBJECT_NAME":"STARLINK-31270","OBJECT_ID":"2024-044C","EPOCH":"2026-01-28T20:42:51.295680","MEAN_MOTION":15.27571838,"ECCENTRICITY":2.258e-5,"INCLINATION":43.0007,"RA_OF_ASC_NODE":332.0321,"ARG_OF_PERICENTER":291.4755,"MEAN_ANOMALY":68.6072,"EPHEMERIS_TYPE":0,"CLASSIFICATION_TYPE":"U","NORAD_CAT_ID":59154,"ELEMENT_SET_NO":999,"REV_AT_EPOCH":10750,"BSTAR":-3.0934903e-5,"MEAN_MOTION_DOT":-1.112e-5,"MEAN_MOTION_DDOT":0},{"OBJECT_NAME":"STARLINK-31341","OBJECT_ID":"2024-044D","EPOCH":"2026-01-28T21:02:29.743296","MEAN_MOTION":15.27580427,"ECCENTRICITY":7.223e-5,"INCLINATION":43.0047,"RA_OF_ASC_NODE":335.5787,"ARG_OF_PERICENTER":249.6575,"MEAN_ANOMALY":110.4199,"EPHEMERIS_TYPE":0,"CLASSIFICATION_TYPE":"U","NORAD_CAT_ID":59155,"ELEMENT_SET_NO":999,"REV_AT_EPOCH":10743,"BSTAR":4.9638267e-5,"MEAN_MOTION_DOT":1.104e-5,"MEAN_MOTION_DDOT":0},{"OBJECT_NAME":"STARLINK-31338","OBJECT_ID":"2024-044E","EPOCH":"2026-01-26T21:52:15.828384","MEAN_MOTION":15.27563694,"ECCENTRICITY":0.00010334,"INCLINATION":42.9996,"RA_OF_ASC_NODE":346.6264,"ARG_OF_PERICENTER":284.9426,"MEAN_ANOMALY":75.1311,"EPHEMERIS_TYPE":0,"CLASSIFICATION_TYPE":"U","NORAD_CAT_ID":59156,"ELEMENT_SET_NO":999,"REV_AT_EPOCH":10713,"BSTAR":5.2458045e-5,"MEAN_MOTION_DOT":1.181e-5,"MEAN_MOTION_DDOT":0},{"OBJECT_NAME":"STARLINK-31334","OBJECT_ID":"2024-044F","EPOCH":"2026-01-27T13:22:42.047040","MEAN_MOTION":15.27584508,"ECCENTRICITY":0.0001444,"INCLINATION":43.0025,"RA_OF_ASC_NODE":342.8716,"ARG_OF_PERICENTER":266.1568,"MEAN_ANOMALY":93.9118,"EPHEMERIS_TYPE":0,"CLASSIFICATION_TYPE":"U","NORAD_CAT_ID":59157,"ELEMENT_SET_NO":999,"REV_AT_EPOCH":10723,"BSTAR":-0.0002289,"MEAN_MOTION_DOT":-6.556e-5,"MEAN_MOTION_DDOT":0},{"OBJECT_NAME":"STARLINK-31297","OBJECT_ID":"2024-044G","EPOCH":"2026-01-28T20:48:25.579872","MEAN_MOTION":15.275694,"ECCENTRICITY":0.00017357,"INCLINATION":43.0027,"RA_OF_ASC_NODE":332.0588,"ARG_OF_PERICENTER":272.6851,"MEAN_ANOMALY":87.3802,"EPHEMERIS_TYPE":0,"CLASSIFICATION_TYPE":"U","NORAD_CAT_ID":59158,"ELEMENT_SET_NO":999,"REV_AT_EPOCH":10750,"BSTAR":-1.0957382e-5,"MEAN_MOTION_DOT":-5.64e-6,"MEAN_MOTION_DDOT":0},{"OBJECT_NAME":"STARLINK-31182","OBJECT_ID":"2024-044H","EPOCH":"2026-01-28T13:38:06.290304","MEAN_MOTION":15.27581604,"ECCENTRICITY":8.701e-5,"INCLINATION":43.0037,"RA_OF_ASC_NODE":333.2602,"ARG_OF_PERICENTER":257.2122,"MEAN_ANOMALY":102.8633,"EPHEMERIS_TYPE":0,"CLASSIFICATION_TYPE":"U","NORAD_CAT_ID":59159,"ELEMENT_SET_NO":999,"REV_AT_EPOCH":10746,"BSTAR":0.00012123137,"MEAN_MOTION_DOT":3.076e-5,"MEAN_MOTION_DDOT":0},{"OBJECT_NAME":"STARLINK-31327","OBJECT_ID":"2024-044J","EPOCH":"2026-01-27T21:19:45.356160","MEAN_MOTION":15.27573694,"ECCENTRICITY":6.262e-5,"INCLINATION":43.0044,"RA_OF_ASC_NODE":337.6175,"ARG_OF_PERICENTER":219.9362,"MEAN_ANOMALY":140.1444,"EPHEMERIS_TYPE":0,"CLASSIFICATION_TYPE":"U","NORAD_CAT_ID":59160,"ELEMENT_SET_NO":999,"REV_AT_EPOCH":10735,"BSTAR":8.44003e-7,"MEAN_MOTION_DOT":-2.39e-6,"MEAN_MOTION_DDOT":0},{"OBJECT_NAME":"STARLINK-31256","OBJECT_ID":"2024-044K","EPOCH":"2026-01-28T20:00:18.310464","MEAN_MOTION":15.27560801,"ECCENTRICITY":0.00032803,"INCLINATION":42.9993,"RA_OF_ASC_NODE":331.8074,"ARG_OF_PERICENTER":288.9722,"MEAN_ANOMALY":71.0774,"EPHEMERIS_TYPE":0,"CLASSIFICATION_TYPE":"U","NORAD_CAT_ID":59161,"ELEMENT_SET_NO":999,"REV_AT_EPOCH":10750,"BSTAR":-9.4287224e-5,"MEAN_MOTION_DOT":-2.855e-5,"MEAN_MOTION_DDOT":0},{"OBJECT_NAME":"STARLINK-31272","OBJECT_ID":"2024-044L","EPOCH":"2026-01-26T22:35:17.803392","MEAN_MOTION":15.27570345,"ECCENTRICITY":0.00023195,"INCLINATION":43.0047,"RA_OF_ASC_NODE":342.5496,"ARG_OF_PERICENTER":271.9625,"MEAN_ANOMALY":88.0962,"EPHEMERIS_TYPE":0,"CLASSIFICATION_TYPE":"U","NORAD_CAT_ID":59162,"ELEMENT_SET_NO":999,"REV_AT_EPOCH":10718,"BSTAR":-7.895522e-6,"MEAN_MOTION_DOT":-4.8e-6,"MEAN_MOTION_DDOT":0},{"OBJECT_NAME":"STARLINK-31278","OBJECT_ID":"2024-044M","EPOCH":"2026-01-28T20:11:23.589600","MEAN_MOTION":15.27580499,"ECCENTRICITY":9.776e-5,"INCLINATION":43.0027,"RA_OF_ASC_NODE":331.8668,"ARG_OF_PERICENTER":255.5918,"MEAN_ANOMALY":104.4826,"EPHEMERIS_TYPE":0,"CLASSIFICATION_TYPE":"U","NORAD_CAT_ID":59163,"ELEMENT_SET_NO":999,"REV_AT_EPOCH":10747,"BSTAR":3.8708758e-5,"MEAN_MOTION_DOT":8.03e-6,"MEAN_MOTION_DDOT":0},{"OBJECT_NAME":"STARLINK-31309","OBJECT_ID":"2024-044N","EPOCH":"2026-01-28T03:01:13.480608","MEAN_MOTION":15.27594911,"ECCENTRICITY":9.414e-5,"INCLINATION":42.9993,"RA_OF_ASC_NODE":335.9619,"ARG_OF_PERICENTER":253.2231,"MEAN_ANOMALY":106.8517,"EPHEMERIS_TYPE":0,"CLASSIFICATION_TYPE":"U","NORAD_CAT_ID":59164,"ELEMENT_SET_NO":999,"REV_AT_EPOCH":10739,"BSTAR":0.00049805499,"MEAN_MOTION_DOT":0.00013475,"MEAN_MOTION_DDOT":0},{"OBJECT_NAME":"STARLINK-31325","OBJECT_ID":"2024-044P","EPOCH":"2026-01-27T20:48:17.225856","MEAN_MOTION":15.27575625,"ECCENTRICITY":0.0001012,"INCLINATION":43.0031,"RA_OF_ASC_NODE":337.4592,"ARG_OF_PERICENTER":243.898,"MEAN_ANOMALY":116.1767,"EPHEMERIS_TYPE":0,"CLASSIFICATION_TYPE":"U","NORAD_CAT_ID":59165,"ELEMENT_SET_NO":999,"REV_AT_EPOCH":10732,"BSTAR":-2.3005922e-5,"MEAN_MOTION_DOT":-8.95e-6,"MEAN_MOTION_DDOT":0}]
